{"type": "FeatureCollection", "features": [{"type": "Feature", "properties": {"norad_id": 66454, "name": "VIASAT-3 F2", "group": "last-30-days", "lat": 5.2932805920935, "lon": 8.099292188059835, "alt_km": 19915.587856813778, "timestamp": "2025-12-12T05:47:27.524492+00:00", "meta": {"OBJECT_NAME": "VIASAT-3 F2", "OBJECT_ID": "2025-261A", "EPOCH": "2025-12-08T12:11:15.383616", "MEAN_MOTION": 2.19142646, "ECCENTRICITY": 0.22792154, "INCLINATION": 5.457, "RA_OF_ASC_NODE": 292.6501, "ARG_OF_PERICENTER": 190.5469, "MEAN_ANOMALY": 204.5187, "EPHEMERIS_TYPE": 0, "CLASSIFICATION_TYPE": "U", "NORAD_CAT_ID": 66454, "ELEMENT_SET_NO": 999, "REV_AT_EPOCH": 55, "BSTAR": 0, "MEAN_MOTION_DOT": -8.1e-07, "MEAN_MOTION_DDOT": 0}, "tle": {"line1": "1 66454U 25261A   25342.50781694 -.00000081  00000+0  00000+0 0  9995", "line2": "2 66454   5.4570 292.6501 2279215 190.5469 204.5187  2.19142646   557"}}, "geometry": {"type": "Point", "coordinates": [8.099292188059835, 5.2932805920935]}}, {"type": "Feature", "properties": {"norad_id": 66455, "name": "ATLAS 5 CENTAUR R/B", "group": "last-30-days", "lat": -4.940159815879144, "lon": -121.58488061868732, "alt_km": 19735.05079263775, "timestamp": "2025-12-12T05:47:27.524547+00:00", "meta": {"OBJECT_NAME": "ATLAS 5 CENTAUR R/B", "OBJECT_ID": "2025-261B", "EPOCH": "2025-12-11T21:33:51.291648", "MEAN_MOTION": 2.28259867, "ECCENTRICITY": 0.23294668, "INCLINATION": 6.1468, "RA_OF_ASC_NODE": 291.7004, "ARG_OF_PERICENTER": 186.3152, "MEAN_ANOMALY": 173.4569, "EPHEMERIS_TYPE": 0, "CLASSIFICATION_TYPE": "U", "NORAD_CAT_ID": 66455, "ELEMENT_SET_NO": 999, "REV_AT_EPOCH": 63, "BSTAR": 0, "MEAN_MOTION_DOT": -7.7e-07, "MEAN_MOTION_DDOT": 0}, "tle": {"line1": "1 66455U 25261B   25345.89851032 -.00000077  00000+0  00000+0 0  9990", "line2": "2 66455   6.1468 291.7004 2329466 186.3152 173.4569  2.28259867   637"}}, "geometry": {"type": "Point", "coordinates": [-121.58488061868732, -4.940159815879144]}}, {"type": "Feature", "properties": {"norad_id": 66456, "name": "STARLINK-35643", "group": "last-30-days", "lat": -42.601763709800856, "lon": -24.813306472972904, "alt_km": 446.72338556965224, "timestamp": "2025-12-12T05:47:27.524565+00:00", "meta": {"OBJECT_NAME": "STARLINK-35643", "OBJECT_ID": "2025-262A", "EPOCH": "2025-12-11T22:00:01.999584", "MEAN_MOTION": 15.40626757, "ECCENTRICITY": 0.00014343, "INCLINATION": 42.9998, "RA_OF_ASC_NODE": 76.3556, "ARG_OF_PERICENTER": 293.4595, "MEAN_ANOMALY": 327.2344, "EPHEMERIS_TYPE": 0, "CLASSIFICATION_TYPE": "U", "NORAD_CAT_ID": 66456, "ELEMENT_SET_NO": 999, "REV_AT_EPOCH": 550, "BSTAR": 0.0008908792, "MEAN_MOTION_DOT": 0.00037001, "MEAN_MOTION_DDOT": 0}, "tle": {"line1": "1 66456U 25262A   25345.91668981  .00037001  00000+0  89088-3 0  9997", "line2": "2 66456  42.9998  76.3556 0001434 293.4595 327.2344 15.40626757  5509"}}, "geometry": {"type": "Point", "coordinates": [-24.813306472972904, -42.601763709800856]}}, {"type": "Feature", "properties": {"norad_id": 66457, "name": "STARLINK-35466", "group": "last-30-days", "lat": -40.41065096927456, "lon": 8.40888741008921, "alt_km": 447.008464569044, "timestamp": "2025-12-12T05:47:27.524578+00:00", "meta": {"OBJECT_NAME": "STARLINK-35466", "OBJECT_ID": "2025-262B", "EPOCH": "2025-12-11T22:00:01.999584", "MEAN_MOTION": 15.40644667, "ECCENTRICITY": 9.828e-05, "INCLINATION": 43.0002, "RA_OF_ASC_NODE": 76.2934, "ARG_OF_PERICENTER": 237.2275, "MEAN_ANOMALY": 48.3382, "EPHEMERIS_TYPE": 0, "CLASSIFICATION_TYPE": "U", "NORAD_CAT_ID": 66457, "ELEMENT_SET_NO": 999, "REV_AT_EPOCH": 550, "BSTAR": 0.00029532475, "MEAN_MOTION_DOT": 0.0001203, "MEAN_MOTION_DDOT": 0}, "tle": {"line1": "1 66457U 25262B   25345.91668981  .00012030  00000+0  29532-3 0  9991", "line2": "2 66457  43.0002  76.2934 0000982 237.2275  48.3382 15.40644667  5508"}}, "geometry": {"type": "Point", "coordinates": [8.40888741008921, -40.41065096927456]}}, {"type": "Feature", "properties": {"norad_id": 66458, "name": "STARLINK-35684", "group": "last-30-days", "lat": -42.72350195290535, "lon": -7.8836342630601735, "alt_km": 447.0263134894758, "timestamp": "2025-12-12T05:47:27.524590+00:00", "meta": {"OBJECT_NAME": "STARLINK-35684", "OBJECT_ID": "2025-262C", "EPOCH": "2025-12-11T22:00:01.999584", "MEAN_MOTION": 15.40656771, "ECCENTRICITY": 8.537e-05, "INCLINATION": 43.0001, "RA_OF_ASC_NODE": 76.3233, "ARG_OF_PERICENTER": 241.882, "MEAN_ANOMALY": 31.247, "EPHEMERIS_TYPE": 0, "CLASSIFICATION_TYPE": "U", "NORAD_CAT_ID": 66458, "ELEMENT_SET_NO": 999, "REV_AT_EPOCH": 550, "BSTAR": 0.00016703486, "MEAN_MOTION_DOT": 6.67e-05, "MEAN_MOTION_DDOT": 0}, "tle": {"line1": "1 66458U 25262C   25345.91668981  .00006670  00000+0  16703-3 0  9991", "line2": "2 66458  43.0001  76.3233 0000853 241.8820  31.2470 15.40656771  5503"}}, "geometry": {"type": "Point", "coordinates": [-7.8836342630601735, -42.72350195290535]}}, {"type": "Feature", "properties": {"norad_id": 66459, "name": "STARLINK-35449", "group": "last-30-days", "lat": -35.994713339154366, "lon": 23.175304921101066, "alt_km": 446.3733385146443, "timestamp": "2025-12-12T05:47:27.524602+00:00", "meta": {"OBJECT_NAME": "STARLINK-35449", "OBJECT_ID": "2025-262D", "EPOCH": "2025-12-11T22:00:01.999584", "MEAN_MOTION": 15.40657095, "ECCENTRICITY": 0.00012442, "INCLINATION": 43.0002, "RA_OF_ASC_NODE": 76.2626, "ARG_OF_PERICENTER": 288.2211, "MEAN_ANOMALY": 9.7741, "EPHEMERIS_TYPE": 0, "CLASSIFICATION_TYPE": "U", "NORAD_CAT_ID": 66459, "ELEMENT_SET_NO": 999, "REV_AT_EPOCH": 550, "BSTAR": 0.00021553305, "MEAN_MOTION_DOT": 8.697e-05, "MEAN_MOTION_DDOT": 0}, "tle": {"line1": "1 66459U 25262D   25345.91668981  .00008697  00000+0  21553-3 0  9992", "line2": "2 66459  43.0002  76.2626 0001244 288.2211   9.7741 15.40657095  5505"}}, "geometry": {"type": "Point", "coordinates": [23.175304921101066, -35.994713339154366]}}, {"type": "Feature", "properties": {"norad_id": 66460, "name": "STARLINK-35424", "group": "last-30-days", "lat": -29.968692231098288, "lon": 36.1343380576735, "alt_km": 446.2763766485514, "timestamp": "2025-12-12T05:47:27.524616+00:00", "meta": {"OBJECT_NAME": "STARLINK-35424", "OBJECT_ID": "2025-262E", "EPOCH": "2025-12-11T22:00:01.999584", "MEAN_MOTION": 15.406653, "ECCENTRICITY": 0.00013652, "INCLINATION": 43.0003, "RA_OF_ASC_NODE": 76.2326, "ARG_OF_PERICENTER": 255.9093, "MEAN_ANOMALY": 54.5121, "EPHEMERIS_TYPE": 0, "CLASSIFICATION_TYPE": "U", "NORAD_CAT_ID": 66460, "ELEMENT_SET_NO": 999, "REV_AT_EPOCH": 550, "BSTAR": 0.00048818032, "MEAN_MOTION_DOT": 0.00020119, "MEAN_MOTION_DDOT": 0}, "tle": {"line1": "1 66460U 25262E   25345.91668981  .00020119  00000+0  48818-3 0  9990", "line2": "2 66460  43.0003  76.2326 0001365 255.9093  54.5121 15.40665300  5506"}}, "geometry": {"type": "Point", "coordinates": [36.1343380576735, -29.968692231098288]}}, {"type": "Feature", "properties": {"norad_id": 66461, "name": "STARLINK-35132", "group": "last-30-days", "lat": -22.83148881081916, "lon": 47.47260967038163, "alt_km": 445.2692762904908, "timestamp": "2025-12-12T05:47:27.524628+00:00", "meta": {"OBJECT_NAME": "STARLINK-35132", "OBJECT_ID": "2025-262F", "EPOCH": "2025-12-11T22:00:01.999584", "MEAN_MOTION": 15.40624949, "ECCENTRICITY": 0.00017674, "INCLINATION": 43.0005, "RA_OF_ASC_NODE": 76.2019, "ARG_OF_PERICENTER": 299.3495, "MEAN_ANOMALY": 23.5496, "EPHEMERIS_TYPE": 0, "CLASSIFICATION_TYPE": "U", "NORAD_CAT_ID": 66461, "ELEMENT_SET_NO": 999, "REV_AT_EPOCH": 550, "BSTAR": 0.0010791768, "MEAN_MOTION_DOT": 0.0004493, "MEAN_MOTION_DDOT": 0}, "tle": {"line1": "1 66461U 25262F   25345.91668981  .00044930  00000+0  10792-2 0  9997", "line2": "2 66461  43.0005  76.2019 0001767 299.3495  23.5496 15.40624949  5507"}}, "geometry": {"type": "Point", "coordinates": [47.47260967038163, -22.83148881081916]}}, {"type": "Feature", "properties": {"norad_id": 66462, "name": "STARLINK-35499", "group": "last-30-days", "lat": -14.955609717236392, "lon": 57.64219994096061, "alt_km": 445.56457790796594, "timestamp": "2025-12-12T05:47:27.524639+00:00", "meta": {"OBJECT_NAME": "STARLINK-35499", "OBJECT_ID": "2025-262G", "EPOCH": "2025-12-11T22:00:01.999584", "MEAN_MOTION": 15.40620052, "ECCENTRICITY": 0.00012623, "INCLINATION": 43.0006, "RA_OF_ASC_NODE": 76.1703, "ARG_OF_PERICENTER": 257.5808, "MEAN_ANOMALY": 77.7864, "EPHEMERIS_TYPE": 0, "CLASSIFICATION_TYPE": "U", "NORAD_CAT_ID": 66462, "ELEMENT_SET_NO": 999, "REV_AT_EPOCH": 550, "BSTAR": 0.00032099125, "MEAN_MOTION_DOT": 0.00013093, "MEAN_MOTION_DDOT": 0}, "tle": {"line1": "1 66462U 25262G   25345.91668981  .00013093  00000+0  32099-3 0  9999", "line2": "2 66462  43.0006  76.1703 0001262 257.5808  77.7864 15.40620052  5503"}}, "geometry": {"type": "Point", "coordinates": [57.64219994096061, -14.955609717236392]}}, {"type": "Feature", "properties": {"norad_id": 66463, "name": "STARLINK-35463", "group": "last-30-days", "lat": 1.7523077041948092, "lon": 76.12074614890156, "alt_km": 443.7301019625247, "timestamp": "2025-12-12T05:47:27.524650+00:00", "meta": {"OBJECT_NAME": "STARLINK-35463", "OBJECT_ID": "2025-262H", "EPOCH": "2025-12-11T22:00:01.999584", "MEAN_MOTION": 15.40695513, "ECCENTRICITY": 0.00017243, "INCLINATION": 43.0011, "RA_OF_ASC_NODE": 76.1104, "ARG_OF_PERICENTER": 262.3233, "MEAN_ANOMALY": 97.7663, "EPHEMERIS_TYPE": 0, "CLASSIFICATION_TYPE": "U", "NORAD_CAT_ID": 66463, "ELEMENT_SET_NO": 999, "REV_AT_EPOCH": 550, "BSTAR": 0.00043532643, "MEAN_MOTION_DOT": 0.00017921, "MEAN_MOTION_DDOT": 0}, "tle": {"line1": "1 66463U 25262H   25345.91668981  .00017921  00000+0  43533-3 0  9999", "line2": "2 66463  43.0011  76.1104 0001724 262.3233  97.7663 15.40695513  5507"}}, "geometry": {"type": "Point", "coordinates": [76.12074614890156, 1.7523077041948092]}}]}